GLOBALSTAR M067         
1 32263U 07048A   25042.96692748 -.00000081  00000+0  12116-3 0  9992
2 32263  51.9740  42.3345 0001147  82.6116 294.8468 12.40666023793945
GLOBALSTAR M070         
1 32264U 07048B   25042.81009744 -.00000089  00000+0  83603-4 0  9993
2 32264  51.9744 150.4516 0000845 128.6776  15.5074 12.62311742797830
GLOBALSTAR M066         
1 32265U 07048C   25042.89572350 -.00000086  00000+0  84850-4 0  9992
2 32265  51.9689  28.6816 0000212  67.4148 326.6303 12.42170506799819
GLOBALSTAR M068         
1 32266U 07048D   25042.93337134 -.00000083  00000+0  11336-3 0  9992
2 32266  51.9908 324.0723 0000435 186.0633 219.4957 12.62814908801730
GLOBALSTAR M079         
1 37188U 10054A   25042.84880075 -.00000112  00000+0 -45696-4 0  9999
2 37188  52.0031 161.3372 0000866  88.8551  63.4264 12.62270682661305
GLOBALSTAR M074         
1 37189U 10054B   25042.78979046 -.00000113  00000+0 -52384-4 0  9993
2 37189  52.0006 160.8591 0001025 112.6567  10.7314 12.62262566661220
GLOBALSTAR M076         
1 37190U 10054C   25042.81906126 -.00000118  00000+0 -76625-4 0  9997
2 37190  52.0020 160.9268 0001173  97.3652  40.9637 12.62277554660942
GLOBALSTAR M077         
1 37191U 10054D   25042.46239412 -.00000083  00000+0  11755-3 0  9998
2 37191  52.0068 118.8366 0000687 117.3891 257.5416 12.62270726661275
